[{"OBJECT_NAME":"FLOCK 4G-23","OBJECT_ID":"2025-009AQ","EPOCH":"2026-03-09T17:11:57.175872","MEAN_MOTION":15.27262579,"ECCENTRICITY":9.048e-5,"INCLINATION":97.3979,"RA_OF_ASC_NODE":150.9478,"ARG_OF_PERICENTER":7.2707,"MEAN_ANOMALY":352.8545,"EPHEMERIS_TYPE":0,"CLASSIFICATION_TYPE":"U","NORAD_CAT_ID":62647,"ELEMENT_SET_NO":999,"REV_AT_EPOCH":6372,"BSTAR":0.00046815788,"MEAN_MOTION_DOT":0.0001244,"MEAN_MOTION_DDOT":0},{"OBJECT_NAME":"STARLINK-33700","OBJECT_ID":"2025-070AA","EPOCH":"2026-03-09T22:13:18.311232","MEAN_MOTION":15.27617072,"ECCENTRICITY":0.00033371,"INCLINATION":43.0051,"RA_OF_ASC_NODE":258.3516,"ARG_OF_PERICENTER":267.5654,"MEAN_ANOMALY":92.4816,"EPHEMERIS_TYPE":0,"CLASSIFICATION_TYPE":"U","NORAD_CAT_ID":63484,"ELEMENT_SET_NO":999,"REV_AT_EPOCH":5301,"BSTAR":0.00084330617,"MEAN_MOTION_DOT":0.00023045,"MEAN_MOTION_DDOT":0}]
